{"type": "Feature", "properties": {}, "geometry": {"type": "MultiPolygon", "coordinates": [[[[-73.8873, -7.6647], [-73.8871, -7.6281], [-73.9823, -7.5584], [-73.9089, -7.4689], [-73.9592, -7.3559], [-73.861, -7.3848], [-73.8502, -7.3523], [-73.7537, -7.3533], [-73.6959, -7.3107], [-73.7998, -7.1168], [-73.7109, -6.8411], [-73.5364, -6.6834], [-73.3912, -6.6419], [-73.3528, -6.5933], [-73.2062, -6.5768], [-73.1111, -6.4535], [-73.1608, -6.2765], [-73.2468, -6.1494], [-73.2382, -6.0437], [-73.1866, -6.0047], [-73.1521, -5.868], [-73.053, -5.7952], [-72.9592, -5.657], [-72.9737, -5.6129], [-72.9385, -5.5412], [-72.9589, -5.4661], [-72.8606, -5.2712], [-72.8882, -5.1668], [-72.8685, -5.1443], [-72.816, -5.1395], [-72.8187, -5.1031], [-72.7398, -5.0885], [-72.7286, -5.0524], [-72.6208, -5.0516], [-72.6086, -4.9937], [-72.5221, -4.96], [-72.5211, -4.9329], [-72.4823, -4.951], [-72.4513, -4.9151], [-72.4702, -4.8911], [-72.4152, -4.9007], [-72.3704, -4.8045], [-72.3227, -4.8116], [-72.3266, -4.7799], [-72.2784, -4.7709], [-72.2709, -4.7984], [-72.1408, -4.7116], [-72.1251, -4.7336], [-72.0427, -4.6228], [-72.0057, -4.6452], [-71.9936, -4.609], [-71.9468, -4.6081], [-71.9183, -4.529], [-71.8847, -4.5374], [-71.9061, -4.515], [-71.8646, -4.5264], [-71.7852, -4.4824], [-71.767, -4.5036], [-71.7509, -4.4674], [-71.7068, -4.51], [-71.6578, -4.5009], [-71.6533, -4.4715], [-71.6482, -4.5028], [-71.6153, -4.4671], [-71.6336, -4.5117], [-71.6033, -4.5286], [-71.5366, -4.4628], [-71.4941, -4.4855], [-71.5072, -4.4374], [-71.4126, -4.4353], [-71.4333, -4.4761], [-71.3891, -4.4263], [-71.3457, -4.4257], [-71.3077, -4.4622], [-71.3187, -4.4173], [-71.2757, -4.4392], [-71.2671, -4.3833], [-71.2234, -4.4063], [-71.2018, -4.3778], [-71.194, -4.4231], [-71.1473, -4.3808], [-71.1148, -4.4083], [-71.0954, -4.3733], [-70.9949, -4.3852], [-70.9938, -4.3447], [-70.938, -4.3832], [-70.8456, -4.2785], [-70.8638, -4.2506], [-70.8164, -4.229], [-70.8452, -4.2192], [-70.7595, -4.1587], [-70.683, -4.2074], [-70.6695, -4.1438], [-70.6511, -4.1648], [-70.6204, -4.1271], [-70.631, -4.1838], [-70.5654, -4.1735], [-70.5665, -4.2111], [-70.5516, -4.1366], [-70.5098, -4.1488], [-70.5042, -4.1994], [-70.4848, -4.1607], [-70.435, -4.1627], [-70.4339, -4.1317], [-70.3747, -4.136], [-70.339, -4.1792], [-70.3202, -4.1431], [-70.2857, -4.17], [-70.2913, -4.2864], [-70.2523, -4.2713], [-70.2614, -4.3076], [-70.214, -4.2983], [-70.194, -4.361], [-70.152, -4.3287], [-70.1563, -4.2748], [-70.1213, -4.2855], [-70.1108, -4.2567], [-70.0952, -4.2885], [-70.0405, -4.2945], [-70.0793, -4.3132], [-70.0428, -4.3331], [-70.0405, -4.3753], [-69.9517, -4.288], [-69.4562, -1.4887], [-69.3975, -1.3609], [-69.43, -1.2184], [-69.3955, -1.122], [-69.4451, -1.0238], [-69.4186, -0.9981], [-69.5283, -0.9245], [-69.5257, -0.8688], [-69.6256, -0.7456], [-69.562, -0.6367], [-69.6033, -0.596], [-69.6085, -0.5007], [-69.8289, -0.3756], [-69.8448, -0.3376], [-69.9205, -0.3258], [-70.0652, -0.1644], [-70.0427, -0.1233], [-70.0465, 0.5623], [-70.0054, 0.5444], [-69.9784, 0.578], [-69.9361, 0.5528], [-69.9162, 0.5902], [-69.8027, 0.5716], [-69.6718, 0.668], [-69.6056, 0.6131], [-69.5973, 0.6545], [-69.4641, 0.7364], [-69.3528, 0.6137], [-69.2882, 0.6498], [-69.2958, 0.6041], [-69.2312, 0.5983], [-69.1833, 0.6543], [-69.1158, 0.6432], [-69.1878, 0.733], [-69.1476, 0.7687], [-69.1674, 0.8437], [-69.1384, 0.8826], [-69.1908, 0.9155], [-69.1648, 0.9409], [-69.2181, 0.9733], [-69.198, 1.0003], [-69.2449, 1.0571], [-69.3752, 1.0895], [-69.4272, 1.0439], [-69.461, 1.0781], [-69.562, 1.072], [-69.6073, 1.0989], [-69.6774, 1.0708], [-69.7048, 1.076], [-69.7049, 1.1189], [-69.811, 1.0633], [-69.8466, 1.0778], [-69.8456, 1.714], [-69.7827, 1.6928], [-69.7211, 1.7352], [-69.6539, 1.7181], [-69.5344, 1.777], [-69.3933, 1.7267], [-68.1633, 1.7278], [-68.1929, 1.7376], [-68.1923, 1.78], [-68.2398, 1.7711], [-68.2266, 1.8292], [-68.2853, 1.8298], [-68.199, 2.0387], [-68.1747, 1.9685], [-68.1393, 1.9707], [-68.0942, 1.8965], [-68.0619, 1.8932], [-68.031, 1.811], [-68.0047, 1.8379], [-67.9077, 1.8048], [-67.9217, 1.8927], [-67.8712, 1.9008], [-67.7755, 2.0349], [-67.6584, 1.9905], [-67.6017, 2.0438], [-67.5739, 2.1623], [-67.4504, 2.1688], [-67.3946, 2.2327], [-67.3273, 2.1549], [-67.3584, 2.0416], [-67.3031, 1.9006], [-67.2202, 1.9179], [-67.2085, 1.8583], [-67.1276, 1.7768], [-67.1431, 1.6042], [-67.1008, 1.5817], [-67.0749, 1.3701], [-67.1121, 1.335], [-67.1514, 1.3456], [-67.1561, 1.3172], [-67.1006, 1.2597], [-67.0892, 1.1656], [-66.8428, 1.2208], [-66.3097, 0.7446], [-66.1964, 0.7821], [-66.1305, 0.7463], [-66.0768, 0.7617], [-66.0375, 0.8175], [-65.9528, 0.8036], [-65.9424, 0.8923], [-65.8896, 0.9032], [-65.8795, 0.9373], [-65.7381, 1.0015], [-65.6854, 0.9818], [-65.6055, 1.0171], [-65.5474, 0.9841], [-65.4908, 0.8494], [-65.5923, 0.7275], [-65.5423, 0.6469], [-65.4329, 0.7005], [-65.3974, 0.7532], [-65.3988, 0.8327], [-65.3309, 0.9285], [-65.1869, 0.9259], [-65.1486, 1.0033], [-65.1719, 1.0134], [-65.1583, 1.1251], [-65.1031, 1.1584], [-65.0142, 1.1075], [-64.9735, 1.1948], [-64.9089, 1.2364], [-64.8783, 1.2174], [-64.8019, 1.3134], [-64.7424, 1.2276], [-64.5766, 1.341], [-64.5256, 1.4413], [-64.3714, 1.5242], [-64.3465, 1.4949], [-64.4013, 1.422], [-64.3441, 1.3551], [-64.3128, 1.4438], [-64.1949, 1.5197], [-64.1696, 1.5769], [-64.1258, 1.5784], [-64.0539, 1.6711], [-64.0817, 1.7547], [-64.0533, 1.8165], [-64.1125, 1.8747], [-64.0886, 1.9167], [-63.9725, 1.9908], [-63.8481, 1.9676], [-63.8207, 2.0059], [-63.754, 1.9858], [-63.6975, 2.0494], [-63.6632, 2.0195], [-63.6605, 2.0685], [-63.5621, 2.1345], [-63.4355, 2.1237], [-63.3933, 2.1481], [-63.359, 2.2704], [-63.3621, 2.4181], [-63.4139, 2.4546], [-63.4637, 2.4019], [-63.4859, 2.4374], [-63.5538, 2.4215], [-63.5923, 2.4572], [-63.7669, 2.4414], [-63.8488, 2.4937], [-63.9351, 2.4562], [-64.0191, 2.4631], [-64.0602, 2.4999], [-64.0444, 2.5778], [-63.9854, 2.6481], [-64.0064, 2.7061], [-63.9827, 2.7206], [-64.02, 2.8198], [-64.0809, 2.877], [-64.0704, 2.9247], [-64.1077, 2.9798], [-64.1612, 2.9845], [-64.1434, 3.0339], [-64.2205, 3.0928], [-64.231, 3.1385], [-64.1806, 3.1657], [-64.1165, 3.2786], [-64.1486, 3.3753], [-64.1174, 3.4689], [-64.1752, 3.5046], [-64.1693, 3.5503], [-64.2492, 3.6333], [-64.2423, 3.6616], [-64.3025, 3.6625], [-64.3173, 3.7135], [-64.554, 3.8671], [-64.5512, 3.9256], [-64.668, 3.9693], [-64.6875, 4.0612], [-64.7712, 4.0592], [-64.7675, 4.1331], [-64.8133, 4.153], [-64.8052, 4.2007], [-64.8302, 4.1953], [-64.8223, 4.2623], [-64.6754, 4.2503], [-64.6777, 4.1844], [-64.6122, 4.111], [-64.56, 4.1019], [-64.4939, 4.1506], [-64.4432, 4.1163], [-64.4207, 4.1441], [-64.3284, 4.1271], [-64.3003, 4.1687], [-64.177, 4.0942], [-64.1313, 4.1096], [-63.9662, 3.8695], [-63.9178, 3.9336], [-63.8608, 3.9474], [-63.666, 3.9099], [-63.6411, 3.9812], [-63.5958, 3.9047], [-63.4986, 3.8403], [-63.4843, 3.8847], [-63.4512, 3.8587], [-63.4151, 3.9016], [-63.4507, 3.9609], [-63.3923, 3.9791], [-63.3038, 3.9211], [-63.2169, 3.9167], [-63.2278, 3.8379], [-63.0933, 3.7888], [-63.0612, 3.7354], [-63.0751, 3.6909], [-62.9513, 3.6116], [-62.9217, 3.6756], [-62.8382, 3.7367], [-62.7365, 3.6824], [-62.7269, 3.8042], [-62.7741, 3.8353], [-62.7533, 3.8562], [-62.7891, 3.8937], [-62.7506, 4.0335], [-62.6441, 4.0499], [-62.5571, 4.0162], [-62.5384, 4.1357], [-62.4705, 4.1363], [-62.4632, 4.1787], [-62.363, 4.1717], [-62.3357, 4.1376], [-62.1451, 4.0754], [-62.1162, 4.1181], [-62.0703, 4.1238], [-62.0694, 4.1567], [-61.9866, 4.1793], [-61.9311, 4.1171], [-61.9223, 4.1582], [-61.8164, 4.1663], [-61.7996, 4.2253], [-61.7276, 4.2672], [-61.724, 4.244], [-61.5577, 4.2519], [-61.5059, 4.3198], [-61.5115, 4.4061], [-61.4514, 4.439], [-61.3445, 4.4175], [-61.2878, 4.4561], [-61.3221, 4.5339], [-61.2177, 4.5333], [-61.1456, 4.4801], [-61.093, 4.5233], [-60.9978, 4.5156], [-60.9314, 4.5843], [-60.9515, 4.6438], [-60.9023, 4.7156], [-60.8511, 4.7029], [-60.8073, 4.7479], [-60.7509, 4.7537], [-60.5876, 4.9259], [-60.6607, 5.1641], [-60.7359, 5.2023], [-60.6819, 5.2323], [-60.4444, 5.1806], [-60.2096, 5.2696], [-60.1888, 5.2322], [-60.1052, 5.2473], [-60.0656, 5.173], [-60.0781, 5.1381], [-59.9714, 5.0756], [-60.0343, 4.8016], [-60.0253, 4.7064], [-60.0756, 4.6555], [-60.0706, 4.6167], [-60.1571, 4.5732], [-60.1614, 4.5181], [-60.1184, 4.5018], [-60.088, 4.5333], [-60.0704, 4.4932], [-59.9728, 4.4805], [-59.9712, 4.5091], [-59.9099, 4.4606], [-59.8744, 4.487], [-59.8614, 4.4524], [-59.7953, 4.4656], [-59.6708, 4.3768], [-59.7329, 4.2848], [-59.7097, 4.2681], [-59.7397, 4.2347], [-59.7311, 4.1813], [-59.6218, 4.134], [-59.6541, 4.0694], [-59.5802, 4.0017], [-59.5844, 3.9687], [-59.5446, 3.9793], [-59.5153, 3.9456], [-59.5939, 3.8842], [-59.5959, 3.7945], [-59.6655, 3.7817], [-59.6688, 3.7027], [-59.7645, 3.6264], [-59.8507, 3.6046], [-59.8721, 3.5636], [-59.804, 3.5069], [-59.8413, 3.427], [-59.8131, 3.4268], [-59.8042, 3.3604], [-59.8339, 3.3528], [-59.8746, 3.2249], [-59.9078, 3.2114], [-59.9079, 3.1126], [-59.9554, 3.0815], [-59.9934, 2.7839], [-59.9724, 2.5951], [-59.9293, 2.5697], [-59.8972, 2.4815], [-59.8988, 2.362], [-59.7872, 2.2835], [-59.7235, 2.2771], [-59.7428, 2.0694], [-59.7207, 2.0271], [-59.7602, 1.8997], [-59.7442, 1.8509], [-59.6549, 1.8659], [-59.6858, 1.7756], [-59.663, 1.7376], [-59.5315, 1.7163], [-59.3796, 1.5073], [-59.3281, 1.5134], [-59.3268, 1.4618], [-59.2863, 1.4543], [-59.2523, 1.3868], [-58.9945, 1.3273], [-58.9802, 1.3013], [-58.9188, 1.3159], [-58.8879, 1.2602], [-58.9123, 1.2354], [-58.8235, 1.1693], [-58.7315, 1.2085], [-58.7087, 1.2945], [-58.4949, 1.2684], [-58.4569, 1.3726], [-58.5068, 1.4024], [-58.5115, 1.4616], [-58.3726, 1.4758], [-58.3955, 1.5257], [-58.3412, 1.5511], [-58.3284, 1.6011], [-58.3199, 1.565], [-58.16, 1.5601], [-58.1301, 1.4978], [-58.0641, 1.5252], [-58.0072, 1.5033], [-57.9777, 1.5698], [-58.0037, 1.6439], [-57.9939, 1.6606], [-57.926, 1.6399], [-57.894, 1.6748], [-57.8013, 1.6817], [-57.7769, 1.7275], [-57.7044, 1.7216], [-57.6533, 1.6795], [-57.5566, 1.6898], [-57.515, 1.7236], [-57.4999, 1.7927], [-57.446, 1.8095], [-57.4357, 1.9066], [-57.3679, 1.9242], [-57.3574, 1.9738], [-57.3073, 1.9996], [-57.2336, 1.9377], [-57.199, 1.9926], [-57.0869, 2.0296], [-57.0649, 1.9524], [-57.006, 1.9081], [-56.9204, 1.9348], [-56.9055, 1.8983], [-56.8302, 1.8886], [-56.7944, 1.8498], [-56.7202, 1.9238], [-56.6662, 1.9115], [-56.6194, 1.9453], [-56.562, 1.9062], [-56.45, 1.9564], [-56.3933, 1.9214], [-56.3376, 1.9389], [-56.2471, 1.8784], [-56.17, 1.9024], [-56.1007, 1.8512], [-55.9532, 1.8489], [-55.8953, 1.895], [-55.9342, 1.986], [-55.8998, 2.0418], [-55.9653, 2.0881], [-55.9997, 2.1675], [-56.0529, 2.1842], [-56.0469, 2.2352], [-56.1389, 2.2672], [-56.0896, 2.3683], [-56.0208, 2.3451], [-56.0392, 2.3624], [-55.9874, 2.4152], [-56.0125, 2.4463], [-55.9765, 2.5258], [-55.7648, 2.4553], [-55.7184, 2.4003], [-55.4598, 2.4462], [-55.4034, 2.4451], [-55.3773, 2.41], [-55.3451, 2.4486], [-55.3648, 2.4848], [-55.3154, 2.5302], [-55.2484, 2.4859], [-55.1537, 2.577], [-55.123, 2.5681], [-55.1183, 2.5163], [-55.0742, 2.5259], [-54.9387, 2.6324], [-54.9332, 2.5896], [-54.9717, 2.5665], [-54.8739, 2.4734], [-54.8744, 2.436], [-54.8134, 2.4239], [-54.7682, 2.4774], [-54.693, 2.4661], [-54.6801, 2.4234], [-54.7175, 2.3813], [-54.697, 2.3325], [-54.5423, 2.3266], [-54.5138, 2.28], [-54.5487, 2.2698], [-54.4489, 2.2035], [-54.3623, 2.2118], [-54.3427, 2.1518], [-54.2338, 2.148], [-54.1839, 2.1787], [-54.1686, 2.1295], [-54.1014, 2.1117], [-54.0656, 2.1968], [-54.0229, 2.1812], [-53.9439, 2.2156], [-53.9344, 2.2812], [-53.9055, 2.2607], [-53.8828, 2.3088], [-53.8133, 2.3114], [-53.8349, 2.3319], [-53.7667, 2.3756], [-53.7208, 2.3508], [-53.7398, 2.3059], [-53.5427, 2.252], [-53.4624, 2.2528], [-53.3564, 2.3479], [-53.3192, 2.3451], [-53.2267, 2.2636], [-53.2599, 2.2487], [-53.2583, 2.2257], [-53.2791, 2.2185], [-53.2742, 2.2099], [-53.2833, 2.1965], [-53.2806, 2.1882], [-53.1023, 2.2261], [-52.9876, 2.168], [-52.9031, 2.1862], [-52.8582, 2.2817], [-52.661, 2.3736], [-52.6189, 2.4743], [-52.5518, 2.5204], [-52.5272, 2.5833], [-52.5552, 2.6404], [-52.4224, 2.8907], [-52.3772, 2.9162], [-52.3935, 2.9463], [-52.3259, 3.0778], [-52.3529, 3.1265], [-52.3314, 3.1708], [-52.1908, 3.2967], [-51.9883, 3.6276], [-51.9726, 3.7055], [-51.9227, 3.7231], [-51.9206, 3.7801], [-51.7986, 3.887], [-51.7776, 3.9746], [-51.6561, 4.0539], [-51.6191, 4.2011], [-51.6182, 4.4644], [-51.5097, 4.4452], [-51.3904, 4.3664], [-51.22, 4.162], [-51.1786, 4.0512], [-51.1758, 3.8965], [-51.0764, 3.898], [-51.0795, 3.4889], [-51.1032, 3.4444], [-51.0306, 3.2069], [-51.0428, 3.135], [-50.9468, 2.8803], [-50.9478, 2.8024], [-50.8828, 2.7414], [-50.8335, 2.5053], [-50.7716, 2.4565], [-50.6828, 2.1441], [-50.4535, 2.1849], [-50.3594, 2.0713], [-50.2445, 1.8099], [-50.1608, 1.8143], [-49.9171, 1.6888], [-49.8667, 1.4045], [-49.9135, 1.2584], [-49.8769, 1.1666], [-49.9092, 1.1309], [-49.9066, 1.0156], [-50.0513, 0.8486], [-50.0938, 0.7122], [-50.1837, 0.6975], [-50.0938, 0.7004], [-50.0922, 0.6512], [-50.0353, 0.5897], [-50.0441, 0.5345], [-49.8343, 0.3132], [-49.5761, 0.391], [-49.356, -0.0186], [-49.0135, -0.1647], [-48.9774, -0.2002], [-48.986, -0.2144], [-48.9816, -0.2206], [-48.8087, -0.2168], [-48.7068, -0.257], [-48.4335, -0.2371], [-48.3698, -0.3059], [-48.4712, -0.4972], [-48.0005, -0.6534], [-47.9819, -0.6905], [-47.906, -0.6028], [-47.9056, -0.5575], [-47.8604, -0.5681], [-47.8677, -0.588], [-47.8464, -0.6255], [-47.8661, -0.6667], [-47.8339, -0.6738], [-47.8206, -0.6369], [-47.822, -0.5617], [-47.7973, -0.563], [-47.8096, -0.5853], [-47.7648, -0.6348], [-47.7733, -0.5613], [-47.709, -0.5377], [-47.6361, -0.602], [-47.6297, -0.7034], [-47.5826, -0.6409], [-47.5886, -0.578], [-47.5352, -0.6141], [-47.4235, -0.5871], [-47.4044, -0.6551], [-47.3668, -0.625], [-47.3836, -0.6068], [-47.2884, -0.5987], [-47.2869, -0.639], [-47.2053, -0.6507], [-47.2164, -0.6856], [-47.232, -0.674], [-47.2389, -0.6773], [-47.2391, -0.6822], [-47.2457, -0.6843], [-47.2478, -0.6922], [-47.2546, -0.6931], [-47.2443, -0.7057], [-47.234, -0.7046], [-47.2225, -0.6943], [-47.1941, -0.6965], [-47.174, -0.6754], [-47.1543, -0.7416], [-47.1257, -0.6863], [-47.0865, -0.6817], [-47.0971, -0.7486], [-47.0492, -0.8004], [-46.9624, -0.7086], [-46.9332, -0.8682], [-46.9235, -0.8671], [-46.9152, -0.8591], [-46.9135, -0.8223], [-46.8845, -0.8094], [-46.8805, -0.7667], [-46.8536, -0.7693], [-46.8717, -0.7475], [-46.8384, -0.7452], [-46.8324, -0.8358], [-46.809, -0.8325], [-46.822, -0.8954], [-46.8159, -0.91], [-46.8069, -0.9168], [-46.7631, -0.8172], [-46.7002, -0.8457], [-46.6593, -0.8167], [-46.6695, -0.7921], [-46.6323, -0.823], [-46.6226, -0.8038], [-46.5978, -0.8483], [-46.6447, -0.8992], [-46.6206, -0.9311], [-46.6403, -0.9746], [-46.5724, -0.9699], [-46.5334, -0.899], [-46.5319, -0.9806], [-46.5104, -0.9485], [-46.504, -0.8829], [-46.4258, -0.8665], [-46.414, -0.8849], [-46.4429, -0.909], [-46.46, -0.9035], [-46.4814, -0.9188], [-46.4667, -0.9522], [-46.4973, -0.9769], [-46.469, -0.9825], [-46.4699, -1.0257], [-46.4335, -1.026], [-46.3951, -0.9965], [-46.3926, -1.0276], [-46.3852, -1.0401], [-46.3464, -1.0094], [-46.3331, -1.0439], [-46.3502, -1.0893], [-46.3459, -1.1068], [-46.2542, -0.9097], [-46.2022, -0.8909], [-46.18, -0.9257], [-46.1845, -0.9467], [-46.2034, -0.9386], [-46.2175, -0.9594], [-46.2067, -1.0384], [-46.1716, -1.0013], [-46.1367, -1.0535], [-46.0838, -1.0211], [-46.0627, -1.1039], [-46.0357, -1.1102], [-45.9709, -1.0521], [-45.9815, -1.114], [-45.9503, -1.141], [-45.9576, -1.1563], [-45.9582, -1.1818], [-45.9567, -1.1936], [-45.9526, -1.201], [-45.8671, -1.0506], [-45.8456, -1.0889], [-45.8931, -1.1466], [-45.8702, -1.1539], [-45.8836, -1.1743], [-45.8671, -1.1717], [-45.8724, -1.2026], [-45.8614, -1.2157], [-45.7999, -1.1618], [-45.8135, -1.203], [-45.8118, -1.2531], [-45.8001, -1.2558], [-45.7947, -1.252], [-45.7191, -1.1303], [-45.7322, -1.112], [-45.7195, -1.1104], [-45.6906, -1.148], [-45.7349, -1.2058], [-45.7025, -1.3354], [-45.6865, -1.3476], [-45.7123, -1.3587], [-45.7094, -1.3948], [-45.6392, -1.373], [-45.6223, -1.338], [-45.6223, -1.2815], [-45.5932, -1.2664], [-45.6002, -1.3381], [-45.5726, -1.2866], [-45.5627, -1.3314], [-45.5423, -1.3381], [-45.5175, -1.3011], [-45.5139, -1.3076], [-45.5269, -1.3403], [-45.5283, -1.3636], [-45.5073, -1.3948], [-45.4886, -1.3771], [-45.4713, -1.3511], [-45.4766, -1.3242], [-45.4503, -1.314], [-45.4627, -1.3023], [-45.418, -1.2943], [-45.418, -1.3463], [-45.4748, -1.3747], [-45.4951, -1.4818], [-45.4677, -1.4805], [-45.3706, -1.3949], [-45.3545, -1.3368], [-45.3635, -1.3187], [-45.3132, -1.3295], [-45.3008, -1.437], [-45.3777, -1.4625], [-45.3947, -1.4883], [-45.316, -1.4862], [-45.331, -1.5634], [-45.2541, -1.5914], [-45.1955, -1.4867], [-45.1032, -1.4728], [-45.0941, -1.4547], [-45.0683, -1.4839], [-44.9608, -1.5131], [-44.8857, -1.419], [-44.8465, -1.4142], [-44.8431, -1.4862], [-44.9176, -1.5373], [-44.9093, -1.6018], [-44.8552, -1.6155], [-44.8343, -1.5718], [-44.7597, -1.5922], [-44.7084, -1.5499], [-44.6479, -1.5998], [-44.6585, -1.6584], [-44.7375, -1.6491], [-44.7625, -1.6737], [-44.7615, -1.7082], [-44.7086, -1.716], [-44.69, -1.7708], [-44.6534, -1.7189], [-44.6128, -1.7322], [-44.5776, -1.7736], [-44.607, -1.7929], [-44.608, -1.8272], [-44.59, -1.7937], [-44.5614, -1.8476], [-44.5339, -1.8243], [-44.5464, -1.8685], [-44.5559, -1.8703], [-44.5744, -1.8816], [-44.5773, -1.889], [-44.5623, -1.8969], [-44.5271, -1.8778], [-44.5129, -1.8865], [-44.4812, -1.9865], [-44.5085, -2.0075], [-44.5003, -2.0538], [-44.3589, -2.3326], [-44.4127, -2.4131], [-44.3171, -2.4999], [-44.1726, -2.457], [-44.1211, -2.4096], [-44.0812, -2.425], [-44.0801, -2.4133], [-44.0854, -2.4096], [-44.0961, -2.4071], [-44.0267, -2.3998], [-44.0253, -2.4511], [-44.0401, -2.4488], [-44.0439, -2.4372], [-44.0511, -2.4301], [-44.0536, -2.4299], [-44.1238, -2.4755], [-44.0015, -2.4786], [-44.0004, -6.7504], [-44.0639, -6.7601], [-44.0802, -6.8131], [-44.1245, -6.7952], [-44.1135, -6.8349], [-44.1356, -6.8273], [-44.2184, -6.9583], [-44.2725, -6.9905], [-44.3163, -7.1091], [-44.395, -7.1124], [-44.5739, -7.219], [-44.6993, -7.386], [-44.8266, -7.3532], [-44.9344, -7.4619], [-45.3445, -7.5689], [-45.4664, -7.6616], [-45.5483, -7.8526], [-45.5837, -8.1562], [-45.6647, -8.252], [-45.7335, -8.413], [-45.7393, -8.5022], [-45.7952, -8.5854], [-45.7673, -8.6104], [-45.7991, -8.6142], [-45.8403, -8.7157], [-45.9611, -8.8199], [-45.9451, -8.8382], [-45.9954, -8.9292], [-45.9017, -9.1905], [-45.9059, -9.331], [-45.829, -9.3936], [-45.7926, -9.4783], [-45.8529, -9.5545], [-45.8337, -9.7691], [-45.8774, -9.8619], [-45.8585, -9.9197], [-45.9016, -10.1185], [-45.9652, -10.2068], [-45.9467, -10.259], [-45.8782, -10.2398], [-45.7941, -10.2681], [-45.7336, -10.2284], [-45.7232, -10.1557], [-45.6965, -10.2585], [-45.7387, -10.3428], [-45.8273, -10.3683], [-45.8311, -10.4363], [-46.0194, -10.5386], [-46.0665, -10.6038], [-46.2113, -10.6501], [-46.1931, -10.7016], [-46.2705, -10.7499], [-46.2298, -10.7943], [-46.3035, -10.854], [-46.2899, -10.911], [-46.3606, -10.9199], [-46.4736, -10.9981], [-46.5129, -11.0589], [-46.4843, -11.1378], [-46.5613, -11.1897], [-46.628, -11.2915], [-46.4797, -11.5168], [-46.3138, -11.5399], [-46.2031, -11.603], [-46.0877, -11.6249], [-46.154, -11.6571], [-46.3149, -11.6307], [-46.2958, -11.6953], [-46.3738, -11.7516], [-46.3231, -11.7712], [-46.3732, -11.8723], [-46.1716, -11.9014], [-46.3257, -11.9585], [-46.3982, -12.0408], [-46.3683, -12.1], [-46.3747, -12.2902], [-46.3239, -12.3039], [-46.3528, -12.3378], [-46.2864, -12.3791], [-46.3014, -12.4162], [-46.2568, -12.4248], [-46.2552, -12.4947], [-46.1543, -12.4837], [-46.1605, -12.5282], [-46.2588, -12.5476], [-46.2803, -12.5853], [-46.291, -12.6311], [-46.2572, -12.6566], [-46.2936, -12.6933], [-46.2653, -12.7174], [-46.2627, -12.8322], [-46.3052, -12.9503], [-46.1149, -12.9183], [-46.3643, -12.9908], [-46.3652, -12.8642], [-46.4171, -12.8228], [-46.4693, -12.9566], [-46.7506, -12.9692], [-46.8194, -13.0018], [-46.8556, -13.0674], [-46.8926, -13.0527], [-47.0819, -13.1788], [-47.1676, -13.2112], [-47.229, -13.194], [-47.2823, -13.2648], [-47.374, -13.2281], [-47.4312, -13.2884], [-47.4542, -13.2495], [-47.4325, -13.2313], [-47.4844, -13.2217], [-47.4789, -13.1853], [-47.5613, -13.184], [-47.563, -13.1206], [-47.634, -13.099], [-47.6693, -13.2098], [-47.6409, -13.2636], [-47.6505, -13.3517], [-47.6231, -13.3681], [-47.6792, -13.4674], [-47.821, -13.3119], [-47.9358, -13.2902], [-47.9657, -13.3146], [-48.0624, -13.2355], [-48.0832, -13.2889], [-48.158, -13.3103], [-48.1437, -13.1518], [-48.2319, -13.1683], [-48.4418, -13.2923], [-48.475, -13.2332], [-48.4736, -13.1375], [-48.5087, -13.1289], [-48.555, -13.2054], [-48.554, -13.3023], [-48.5857, -13.3166], [-48.5764, -13.1231], [-48.6021, -13.0582], [-48.6689, -12.9954], [-48.7181, -13.0004], [-48.7371, -12.9202], [-48.8693, -12.8025], [-48.9748, -12.9545], [-49.0218, -12.9063], [-49.0788, -12.9037], [-49.0673, -12.8473], [-49.117, -12.7898], [-49.2378, -12.8844], [-49.3548, -13.1034], [-49.3408, -13.2455], [-49.3695, -13.2746], [-49.9455, -12.9268], [-50.0394, -12.9354], [-50.2925, -12.8386], [-50.2992, -12.681], [-50.2662, -12.6846], [-50.2369, -12.5791], [-50.193, -12.5648], [-50.2295, -12.5314], [-50.218, -12.4884], [-50.1427, -12.3952], [-50.311, -12.4945], [-50.4407, -12.6523], [-50.4332, -12.6915], [-50.478, -12.7106], [-50.5247, -12.9744], [-50.5939, -13.0057], [-50.5722, -13.0453], [-50.6137, -13.0714], [-50.587, -13.2192], [-50.6661, -13.4339], [-50.7587, -13.5184], [-50.8065, -13.6921], [-50.8725, -13.732], [-50.8406, -13.8709], [-50.8673, -13.9687], [-50.8311, -14.0826], [-50.8567, -14.1196], [-50.9182, -14.1163], [-50.9135, -14.1681], [-50.9791, -14.2959], [-50.9979, -14.4153], [-50.9616, -14.5197], [-51.055, -14.7435], [-51.0425, -14.7892], [-51.0922, -14.8511], [-51.0857, -14.9195], [-51.2645, -15.0396], [-51.326, -14.969], [-51.3699, -15.0095], [-51.4281, -15.0068], [-51.6489, -15.1739], [-51.7006, -15.4883], [-51.7357, -15.5073], [-51.7379, -15.5549], [-51.779, -15.5348], [-51.7585, -15.631], [-51.885, -15.8289], [-51.9546, -15.8116], [-52.0108, -15.8851], [-52.2516, -15.8906], [-52.3302, -16.0722], [-52.5246, -16.1385], [-52.5709, -16.2303], [-52.548, -16.2607], [-52.6582, -16.2797], [-52.6888, -16.3163], [-52.6888, -16.4001], [-52.6062, -16.4625], [-52.637, -16.5513], [-52.6686, -16.551], [-52.6751, -16.5853], [-52.7057, -16.5711], [-52.7054, -16.5992], [-52.7405, -16.5899], [-52.7161, -16.6397], [-52.7473, -16.6312], [-52.7865, -16.7416], [-52.933, -16.8025], [-52.9646, -16.8674], [-53.0148, -16.8618], [-53.0562, -16.9634], [-53.0565, -17.0706], [-53.1195, -17.1137], [-53.2192, -17.2979], [-53.1964, -17.3658], [-53.2339, -17.4414], [-53.2516, -17.6195], [-53.2388, -17.7146], [-53.1601, -17.7872], [-53.0734, -18.0345], [-53.8203, -17.9557], [-53.8926, -17.9063], [-53.9429, -17.9174], [-53.9423, -17.8481], [-53.8527, -17.7013], [-53.7039, -17.6615], [-53.6725, -17.2533], [-53.7002, -17.2264], [-53.8192, -17.2942], [-53.8324, -17.3566], [-53.933, -17.4432], [-54.0536, -17.5063], [-54.0794, -17.6182], [-54.1744, -17.5997], [-54.3341, -17.6587], [-54.3873, -17.6313], [-54.3823, -17.5755], [-54.4233, -17.5311], [-54.5823, -17.465], [-54.7518, -17.5177], [-54.7622, -17.5607], [-54.8623, -17.6176], [-54.9384, -17.6042], [-55.1289, -17.6443], [-55.2944, -17.541], [-55.3509, -17.5482], [-55.3759, -17.5141], [-55.525, -17.4826], [-55.5897, -17.422], [-55.5865, -17.3735], [-55.6439, -17.3417], [-55.7865, -17.3303], [-55.8882, -17.264], [-55.9403, -17.2791], [-55.9513, -17.2504], [-56.0048, -17.246], [-56.0455, -17.1721], [-56.1159, -17.1679], [-56.2115, -17.2277], [-56.254, -17.2203], [-56.3001, -17.2773], [-56.3592, -17.2678], [-56.4423, -17.3321], [-56.5013, -17.2866], [-56.5786, -17.3326], [-56.6478, -17.3178], [-56.664, -17.3409], [-56.7347, -17.3107], [-56.7889, -17.388], [-56.8315, -17.3914], [-56.8284, -17.4585], [-56.8765, -17.5327], [-56.9834, -17.5786], [-56.9643, -17.6185], [-57.0533, -17.7304], [-57.1215, -17.7799], [-57.3824, -17.8254], [-57.4577, -17.9003], [-57.4809, -17.8592], [-57.6068, -17.8034], [-57.6406, -17.7186], [-57.6845, -17.7113], [-57.6681, -17.6751], [-57.7156, -17.5383], [-57.7572, -17.5599], [-57.8834, -17.4496], [-57.9958, -17.5152], [-58.0417, -17.4926], [-58.0559, -17.4559], [-58.1169, -17.4493], [-58.1517, -17.3861], [-58.2633, -17.345], [-58.3955, -17.1846], [-58.3787, -17.0449], [-58.4744, -16.9351], [-58.4704, -16.7038], [-58.4355, -16.5938], [-58.3342, -16.4902], [-58.3564, -16.4262], [-58.3073, -16.3707], [-58.3216, -16.2655], [-58.3942, -16.2598], [-58.4076, -16.3031], [-58.4645, -16.3181], [-60.1741, -16.2669], [-60.2396, -15.4745], [-60.5757, -15.0975], [-60.245, -15.0975], [-60.2736, -14.621], [-60.3284, -14.577], [-60.4077, -14.4129], [-60.3957, -14.3641], [-60.4537, -14.3138], [-60.4499, -14.2405], [-60.4932, -14.1885], [-60.4796, -14.094], [-60.3817, -13.9895], [-60.451, -13.937], [-60.4513, -13.8827], [-60.4763, -13.8863], [-60.4565, -13.8545], [-60.493, -13.8557], [-60.4668, -13.7956], [-60.768, -13.6833], [-60.8776, -13.6198], [-60.9211, -13.5418], [-61.0076, -13.5508], [-60.9888, -13.5005], [-61.0154, -13.488], [-61.0562, -13.5124], [-61.0951, -13.4915], [-61.1042, -13.5317], [-61.1831, -13.5058], [-61.1945, -13.5368], [-61.2999, -13.4778], [-61.3081, -13.504], [-61.4676, -13.5539], [-61.5709, -13.5185], [-61.5785, -13.4873], [-61.6254, -13.5166], [-61.6949, -13.4988], [-61.7587, -13.5406], [-61.7734, -13.5159], [-61.8561, -13.538], [-61.8947, -13.4296], [-61.9693, -13.4074], [-61.9744, -13.3683], [-62.1148, -13.2594], [-62.1166, -13.1585], [-62.1503, -13.1619], [-62.1675, -13.1135], [-62.1943, -13.153], [-62.2157, -13.1103], [-62.274, -13.1573], [-62.416, -13.1274], [-62.4582, -13.0616], [-62.5043, -13.0819], [-62.6104, -13.0426], [-62.6007, -13.0141], [-62.6299, -13.0157], [-62.6492, -12.9642], [-62.781, -13.0086], [-62.8058, -12.9405], [-62.8491, -12.9465], [-62.8936, -12.8566], [-63.0118, -12.8356], [-63.0482, -12.7389], [-63.0821, -12.723], [-63.0621, -12.686], [-63.0992, -12.6811], [-63.093, -12.6334], [-63.162, -12.6132], [-63.1666, -12.6421], [-63.1947, -12.6233], [-63.1988, -12.6571], [-63.247, -12.6618], [-63.2374, -12.6898], [-63.2979, -12.6818], [-63.4419, -12.6064], [-63.4374, -12.5643], [-63.5064, -12.5648], [-63.5571, -12.5042], [-63.7842, -12.4277], [-63.8346, -12.4621], [-63.8881, -12.4457], [-63.902, -12.5037], [-63.9503, -12.5294], [-64.0933, -12.4837], [-64.1241, -12.5054], [-64.134, -12.4766], [-64.1695, -12.5136], [-64.1734, -12.4671], [-64.2297, -12.4532], [-64.2931, -12.5016], [-64.2953, -12.4572], [-64.4123, -12.4437], [-64.5108, -12.3585], [-64.5121, -12.2253], [-64.5529, -12.241], [-64.7079, -12.1786], [-64.7068, -12.0875], [-64.7556, -12.1573], [-64.7618, -12.0963], [-64.8222, -12.0974], [-64.839, -12.0112], [-64.9194, -12.0267], [-64.9472, -11.9925], [-64.9781, -12.0187], [-65.0346, -11.9952], [-65.0196, -11.9022], [-65.0733, -11.8676], [-65.0872, -11.7082], [-65.1885, -11.7223], [-65.1845, -11.756], [-65.2602, -11.709], [-65.2168, -11.6536], [-65.2119, -11.5317], [-65.3091, -11.4952], [-65.3337, -11.3432], [-65.2908, -11.3189], [-65.3434, -11.3083], [-65.3603, -11.2588], [-65.3585, -11.217], [-65.3136, -11.1941], [-65.3541, -11.1836], [-65.3609, -11.1358], [-65.2824, -11.0878], [-65.3013, -11.0309], [-65.2505, -10.9857], [-65.276, -10.868], [-65.3545, -10.788], [-65.3472, -10.6783], [-65.4055, -10.6403], [-65.4304, -10.4815], [-65.2898, -10.2184], [-65.3321, -9.929], [-65.2864, -9.8425], [-65.3985, -9.6838], [-65.4453, -9.6649], [-65.5006, -9.729], [-65.5008, -9.785], [-65.5652, -9.8102], [-65.5589, -9.8454], [-65.6281, -9.8374], [-65.669, -9.7811], [-65.7105, -9.8084], [-65.6845, -9.7496], [-65.7443, -9.7826], [-65.7707, -9.7342], [-65.7956, -9.793], [-65.8001, -9.7564], [-65.8647, -9.7952], [-65.8711, -9.7536], [-65.9212, -9.7529], [-65.9828, -9.8098], [-66.0709, -9.7825], [-66.0936, -9.8137], [-66.1036, -9.7818], [-66.1523, -9.7842], [-66.2037, -9.8348], [-66.2367, -9.8128], [-66.2848, -9.8443], [-66.3474, -9.8379], [-66.424, -9.8983], [-66.4367, -9.865], [-66.6201, -9.8936], [-66.6372, -9.9499], [-66.6636, -9.9372], [-66.8379, -10.0829], [-66.8743, -10.0809], [-66.9537, -10.1889], [-66.9967, -10.1988], [-67.0157, -10.2585], [-67.1261, -10.2904], [-67.1769, -10.3389], [-67.3154, -10.3183], [-67.3115, -10.3764], [-67.3525, -10.3924], [-67.4075, -10.3732], [-67.4368, -10.4483], [-67.5623, -10.4959], [-67.6756, -10.6051], [-67.7082, -10.7107], [-67.8641, -10.6404], [-68.0326, -10.6555], [-68.1056, -10.7161], [-68.1041, -10.7753], [-68.1961, -10.8598], [-68.2363, -10.9605], [-68.3765, -11.0151], [-68.4023, -11.0566], [-68.4838, -11.0505], [-68.5448, -11.1088], [-68.7155, -11.1475], [-68.7631, -11.0707], [-68.7578, -10.9996], [-68.8473, -10.9916], [-68.9104, -11.0224], [-68.9533, -10.9893], [-68.9925, -11.0113], [-69.0713, -10.9671], [-69.1205, -10.9812], [-69.3247, -10.9355], [-69.3747, -10.9566], [-69.4175, -10.9256], [-69.714, -10.9739], [-69.7693, -10.93], [-69.9336, -10.9223], [-70.1585, -11.042], [-70.3744, -11.0604], [-70.4382, -11.0385], [-70.5217, -10.9342], [-70.6177, -10.9994], [-70.6234, -9.8205], [-70.5366, -9.7658], [-70.5252, -9.715], [-70.5847, -9.6408], [-70.6006, -9.5626], [-70.5555, -9.5724], [-70.5709, -9.5334], [-70.5059, -9.5049], [-70.525, -9.4605], [-70.4964, -9.425], [-70.5965, -9.443], [-70.6632, -9.526], [-70.7506, -9.5603], [-70.7935, -9.6386], [-70.9634, -9.7489], [-70.9939, -9.8172], [-71.0516, -9.8154], [-71.1568, -9.8717], [-71.2144, -9.968], [-71.2976, -9.992], [-71.3437, -9.9667], [-71.3751, -9.9998], [-72.1775, -9.9998], [-72.1362, -9.8751], [-72.1503, -9.7978], [-72.2636, -9.7496], [-72.2531, -9.6165], [-72.2882, -9.6032], [-72.2827, -9.5402], [-72.3188, -9.5432], [-72.3573, -9.4946], [-72.5187, -9.4916], [-72.7157, -9.4122], [-73.2053, -9.4122], [-73.1888, -9.3632], [-73.1014, -9.3081], [-73.0759, -9.2377], [-73.0105, -9.2224], [-73.0253, -9.1779], [-72.9582, -9.1437], [-72.9404, -8.9857], [-72.9996, -8.9155], [-73.0587, -8.9065], [-73.1656, -8.6985], [-73.2547, -8.6906], [-73.3416, -8.6161], [-73.3331, -8.4734], [-73.392, -8.4715], [-73.4133, -8.4112], [-73.4509, -8.4181], [-73.5407, -8.3487], [-73.53, -8.2725], [-73.595, -8.2065], [-73.6164, -8.034], [-73.7749, -7.909], [-73.7482, -7.8953], [-73.7658, -7.8603], [-73.7073, -7.8763], [-73.6807, -7.8519], [-73.6797, -7.7814], [-73.7161, -7.7415], [-73.821, -7.7176], [-73.841, -7.666], [-73.8873, -7.6647]], [[-46.0595, -1.1211], [-46.0546, -1.1125], [-46.0516, -1.1071], [-46.0595, -1.1211]]], [[[-50.826, 2.5178], [-50.8271, 2.5254], [-50.8237, 2.5255], [-50.826, 2.5178]]], [[[-49.9897, 0.8759], [-49.9832, 0.8864], [-49.9823, 0.8739], [-49.9897, 0.8759]]], [[[-49.3643, 0.1108], [-49.3667, 0.1139], [-49.3607, 0.1181], [-49.3643, 0.1108]]], [[[-49.1673, 0.0496], [-49.1745, 0.0541], [-49.1627, 0.0623], [-49.1673, 0.0496]]], [[[-49.0306, -0.1323], [-49.0279, -0.1343], [-49.033, -0.1374], [-49.0306, -0.1323]]], [[[-48.9863, -0.1745], [-48.9711, -0.1843], [-48.9679, -0.1932], [-48.9863, -0.1745]]], [[[-48.9419, -0.1836], [-48.9443, -0.1747], [-48.9381, -0.1749], [-48.9419, -0.1836]]], [[[-48.8845, -0.1697], [-48.8721, -0.2039], [-48.947, -0.2111], [-48.9333, -0.1656], [-48.8845, -0.1697]]], [[[-48.7649, -0.1918], [-48.7611, -0.169], [-48.7458, -0.1738], [-48.7649, -0.1918]]], [[[-48.7262, -0.1743], [-48.7223, -0.1761], [-48.723, -0.1782], [-48.7262, -0.1743]]], [[[-47.9848, -0.6575], [-47.9736, -0.6639], [-47.9821, -0.6732], [-47.9848, -0.6575]]], [[[-47.9606, -0.6499], [-47.9659, -0.6461], [-47.9623, -0.6438], [-47.9606, -0.6499]]], [[[-47.9163, -0.5946], [-47.9212, -0.5952], [-47.9211, -0.5916], [-47.9163, -0.5946]]], [[[-47.8516, -0.5967], [-47.8515, -0.5897], [-47.8484, -0.5881], [-47.8516, -0.5967]]], [[[-47.8402, -0.664], [-47.8469, -0.665], [-47.8419, -0.6562], [-47.8402, -0.664]]], [[[-47.8387, -0.6566], [-47.8353, -0.6568], [-47.837, -0.6645], [-47.8387, -0.6566]]], [[[-47.8305, -0.6391], [-47.8237, -0.6344], [-47.8279, -0.6486], [-47.8305, -0.6391]]], [[[-47.8034, -0.5893], [-47.8006, -0.5866], [-47.8006, -0.5921], [-47.8034, -0.5893]]], [[[-47.7979, -0.5901], [-47.7872, -0.5853], [-47.7955, -0.5967], [-47.7979, -0.5901]]], [[[-47.7842, -0.586], [-47.7747, -0.5878], [-47.7808, -0.5941], [-47.7842, -0.586]]], [[[-47.2498, -0.6977], [-47.2412, -0.6866], [-47.2445, -0.6969], [-47.2498, -0.6977]]], [[[-47.2369, -0.6764], [-47.2341, -0.6781], [-47.2372, -0.6769], [-47.2369, -0.6764]]], [[[-47.2342, -0.6866], [-47.2379, -0.691], [-47.2383, -0.6909], [-47.2342, -0.6866]]], [[[-47.2315, -0.6975], [-47.2335, -0.7037], [-47.2369, -0.704], [-47.2315, -0.6975]]], [[[-47.2162, -0.6897], [-47.2129, -0.6907], [-47.2174, -0.6911], [-47.2162, -0.6897]]], [[[-47.1529, -0.7314], [-47.1555, -0.7355], [-47.1548, -0.7298], [-47.1529, -0.7314]]], [[[-47.1346, -0.7006], [-47.1409, -0.6966], [-47.1308, -0.6941], [-47.1346, -0.7006]]], [[[-47.1144, -0.6791], [-47.1268, -0.6841], [-47.1298, -0.6854], [-47.1228, -0.6782], [-47.1144, -0.6791]]], [[[-46.9225, -0.8567], [-46.9214, -0.8632], [-46.9248, -0.862], [-46.9225, -0.8567]]], [[[-46.7607, -0.803], [-46.763, -0.8007], [-46.7568, -0.7994], [-46.7607, -0.803]]], [[[-46.7658, -0.8112], [-46.76, -0.8116], [-46.7658, -0.813], [-46.7658, -0.8112]]], [[[-46.7629, -0.8143], [-46.7567, -0.8141], [-46.7651, -0.817], [-46.7629, -0.8143]]], [[[-46.7121, -0.7932], [-46.719, -0.7913], [-46.7347, -0.7826], [-46.7186, -0.7832], [-46.7121, -0.7932]]], [[[-46.6166, -0.9532], [-46.6215, -0.9472], [-46.6099, -0.9509], [-46.6166, -0.9532]]], [[[-46.5192, -0.9526], [-46.5306, -0.9477], [-46.5248, -0.9439], [-46.5192, -0.9526]]], [[[-46.5124, -0.935], [-46.5243, -0.9406], [-46.5225, -0.9328], [-46.5124, -0.935]]], [[[-46.5104, -0.8917], [-46.5072, -0.8941], [-46.5108, -0.8946], [-46.5104, -0.8917]]], [[[-46.4835, -0.9716], [-46.4827, -0.9741], [-46.4852, -0.9734], [-46.4835, -0.9716]]], [[[-46.4693, -0.9645], [-46.4713, -0.969], [-46.4759, -0.9688], [-46.4693, -0.9645]]], [[[-46.4567, -0.9086], [-46.4618, -0.9097], [-46.458, -0.9066], [-46.4567, -0.9086]]], [[[-46.4352, -1.0161], [-46.4487, -1.0154], [-46.4336, -1.0085], [-46.4352, -1.0161]]], [[[-46.4143, -0.9422], [-46.4173, -0.9772], [-46.4362, -0.9901], [-46.4143, -0.9422]]], [[[-46.3899, -1.0256], [-46.3841, -1.0366], [-46.3848, -1.0369], [-46.3899, -1.0256]]], [[[-46.3801, -1.01], [-46.3845, -1.0143], [-46.3782, -1.0032], [-46.3801, -1.01]]], [[[-46.3135, -0.9354], [-46.3084, -0.9965], [-46.3139, -1.0069], [-46.3369, -0.9594], [-46.3135, -0.9354]]], [[[-46.2096, -0.9513], [-46.2021, -0.9419], [-46.1964, -0.9431], [-46.2096, -0.9513]]], [[[-46.1965, -0.9497], [-46.1968, -0.9467], [-46.1942, -0.9478], [-46.1965, -0.9497]]], [[[-46.1452, -0.9425], [-46.1529, -0.934], [-46.1462, -0.9275], [-46.1452, -0.9425]]], [[[-45.9529, -1.1872], [-45.9557, -1.1877], [-45.953, -1.1828], [-45.9529, -1.1872]]], [[[-45.8646, -1.1976], [-45.8667, -1.1922], [-45.8631, -1.1913], [-45.8646, -1.1976]]], [[[-45.8659, -1.1872], [-45.8693, -1.1861], [-45.866, -1.1816], [-45.8659, -1.1872]]], [[[-45.8647, -1.1849], [-45.8614, -1.1861], [-45.8639, -1.1898], [-45.8647, -1.1849]]], [[[-45.8056, -1.2517], [-45.7978, -1.2389], [-45.7979, -1.2526], [-45.8056, -1.2517]]], [[[-45.8091, -1.1251], [-45.8245, -1.1519], [-45.827, -1.1281], [-45.8091, -1.1251]]], [[[-45.8064, -1.191], [-45.7901, -1.227], [-45.7999, -1.2284], [-45.8064, -1.191]]], [[[-45.7682, -1.1906], [-45.772, -1.1952], [-45.7727, -1.19], [-45.7682, -1.1906]]], [[[-45.7591, -1.1761], [-45.751, -1.172], [-45.7596, -1.1823], [-45.7591, -1.1761]]], [[[-45.6868, -1.304], [-45.7031, -1.3045], [-45.7014, -1.2968], [-45.6868, -1.304]]], [[[-45.6869, -1.184], [-45.687, -1.1895], [-45.6891, -1.1849], [-45.6869, -1.184]]], [[[-45.6832, -1.2], [-45.6784, -1.199], [-45.6814, -1.2034], [-45.6832, -1.2]]], [[[-45.6937, -1.1921], [-45.6681, -1.2459], [-45.6912, -1.2655], [-45.7097, -1.2258], [-45.6937, -1.1921]]], [[[-45.6559, -1.3734], [-45.6585, -1.3705], [-45.6547, -1.3718], [-45.6559, -1.3734]]], [[[-45.6602, -1.2736], [-45.6526, -1.2747], [-45.659, -1.2769], [-45.6602, -1.2736]]], [[[-45.6588, -1.2494], [-45.646, -1.2475], [-45.6564, -1.2581], [-45.6588, -1.2494]]], [[[-45.6518, -1.2343], [-45.6482, -1.2311], [-45.6479, -1.239], [-45.6518, -1.2343]]], [[[-45.6453, -1.364], [-45.6589, -1.3688], [-45.6616, -1.3668], [-45.6453, -1.364]]], [[[-45.6269, -1.1277], [-45.6457, -1.2996], [-45.6448, -1.3284], [-45.6375, -1.3498], [-45.7029, -1.3658], [-45.6807, -1.3476], [-45.6905, -1.2739], [-45.6625, -1.2538], [-45.6627, -1.2747], [-45.6593, -1.2778], [-45.6484, -1.2785], [-45.6573, -1.2927], [-45.6468, -1.2811], [-45.6473, -1.2771], [-45.6571, -1.2671], [-45.6436, -1.2444], [-45.6468, -1.2045], [-45.6269, -1.1277]]], [[[-45.6305, -1.3317], [-45.6419, -1.3263], [-45.6389, -1.3162], [-45.6305, -1.3317]]], [[[-45.6265, -1.333], [-45.6282, -1.3301], [-45.6266, -1.3282], [-45.6265, -1.333]]], [[[-45.6036, -1.1594], [-45.609, -1.1523], [-45.6057, -1.15], [-45.6036, -1.1594]]], [[[-45.5694, -1.2627], [-45.5759, -1.2716], [-45.572, -1.2613], [-45.5694, -1.2627]]], [[[-45.5457, -1.2898], [-45.556, -1.2826], [-45.5475, -1.2753], [-45.5457, -1.2898]]], [[[-45.5607, -1.2942], [-45.5462, -1.2999], [-45.5582, -1.3081], [-45.5607, -1.2942]]], [[[-45.5428, -1.2302], [-45.5784, -1.2297], [-45.5935, -1.2389], [-45.5693, -1.1923], [-45.5428, -1.2302]]], [[[-45.5331, -1.3086], [-45.5613, -1.3289], [-45.5436, -1.3054], [-45.5434, -1.307], [-45.5331, -1.3086]]], [[[-45.5406, -1.3038], [-45.539, -1.3072], [-45.5432, -1.3061], [-45.5406, -1.3038]]], [[[-45.5252, -1.3411], [-45.5235, -1.3393], [-45.5233, -1.3395], [-45.5252, -1.3411]]], [[[-45.4987, -1.3554], [-45.4971, -1.3568], [-45.4989, -1.3588], [-45.4987, -1.3554]]], [[[-45.4945, -1.348], [-45.4995, -1.3546], [-45.4956, -1.3466], [-45.4945, -1.348]]], [[[-45.4867, -1.3419], [-45.4913, -1.3443], [-45.4872, -1.3403], [-45.4867, -1.3419]]], [[[-45.4741, -1.3484], [-45.5043, -1.3902], [-45.4796, -1.3397], [-45.4741, -1.3484]]], [[[-45.4079, -1.3993], [-45.415, -1.4196], [-45.4215, -1.4076], [-45.4079, -1.3993]]], [[[-45.3784, -1.3936], [-45.3705, -1.3914], [-45.372, -1.3954], [-45.3784, -1.3936]]], [[[-45.1324, -1.4672], [-45.1232, -1.4368], [-45.1103, -1.4201], [-45.1041, -1.4657], [-45.1324, -1.4672]]], [[[-45.1087, -1.4121], [-45.1258, -1.382], [-45.1129, -1.3637], [-45.0916, -1.3792], [-45.1087, -1.4121]]], [[[-45.1031, -1.4214], [-45.0858, -1.3956], [-45.1004, -1.4326], [-45.1031, -1.4214]]], [[[-45.0885, -1.4414], [-45.0964, -1.4299], [-45.0877, -1.4219], [-45.0885, -1.4414]]], [[[-45.0703, -1.4401], [-45.0846, -1.442], [-45.0797, -1.428], [-45.0703, -1.4401]]], [[[-45.0796, -1.3723], [-45.0769, -1.3893], [-45.0873, -1.3917], [-45.0796, -1.3723]]], [[[-45.0404, -1.3738], [-45.0469, -1.3975], [-45.0483, -1.3654], [-45.0404, -1.3738]]], [[[-45.0087, -1.3429], [-45.033, -1.3187], [-44.9912, -1.3223], [-44.9955, -1.3464], [-45.0087, -1.3429]]], [[[-45.0071, -1.3988], [-45.0219, -1.3701], [-45.0061, -1.3461], [-44.9887, -1.3794], [-44.9858, -1.381], [-44.9742, -1.3771], [-45.0071, -1.3988]]], [[[-44.9892, -1.3017], [-45.0017, -1.2936], [-44.9732, -1.2638], [-44.9633, -1.2777], [-44.9684, -1.2795], [-44.9732, -1.2894], [-44.9768, -1.2839], [-44.9798, -1.2863], [-44.9832, -1.2907], [-44.9844, -1.2983], [-44.9892, -1.3017]]], [[[-44.9689, -1.3483], [-44.9667, -1.3595], [-44.9658, -1.3606], [-44.9595, -1.3624], [-44.9624, -1.3695], [-44.9617, -1.3728], [-44.9537, -1.3756], [-44.9795, -1.3937], [-44.9732, -1.3768], [-44.9964, -1.3534], [-44.9878, -1.322], [-44.9605, -1.3329], [-44.9591, -1.3398], [-44.9654, -1.3421], [-44.9689, -1.3483]]], [[[-44.9645, -1.5115], [-44.9746, -1.4914], [-44.9596, -1.4736], [-44.9493, -1.4824], [-44.9645, -1.5115]]], [[[-44.9551, -1.3018], [-44.9574, -1.3088], [-44.9609, -1.3018], [-44.9772, -1.2999], [-44.9788, -1.3012], [-44.9788, -1.304], [-44.9751, -1.3128], [-44.9904, -1.3059], [-44.9839, -1.2992], [-44.9788, -1.2863], [-44.973, -1.2902], [-44.9628, -1.2779], [-44.9416, -1.2871], [-44.9547, -1.2991], [-44.9551, -1.3018]]], [[[-44.9279, -1.3053], [-44.927, -1.3086], [-44.9313, -1.3181], [-44.9073, -1.3304], [-44.9441, -1.3409], [-44.9044, -1.3379], [-44.9496, -1.3783], [-44.9613, -1.3702], [-44.9592, -1.362], [-44.9659, -1.3593], [-44.9679, -1.3475], [-44.9592, -1.3419], [-44.9579, -1.3357], [-44.9778, -1.3014], [-44.9561, -1.3094], [-44.9277, -1.295], [-44.9279, -1.3053]]], [[[-44.8882, -1.345], [-44.8857, -1.318], [-44.8712, -1.3111], [-44.8657, -1.3297], [-44.8882, -1.345]]], [[[-44.8817, -1.3121], [-44.8981, -1.2931], [-44.8957, -1.3384], [-44.9074, -1.3231], [-44.9234, -1.3219], [-44.9177, -1.3033], [-44.9528, -1.2676], [-44.8801, -1.2846], [-44.8817, -1.3121]]], [[[-44.8324, -1.5649], [-44.8278, -1.5568], [-44.8251, -1.5654], [-44.8324, -1.5649]]], [[[-44.7801, -1.4777], [-44.828, -1.5551], [-44.8339, -1.5338], [-44.7801, -1.4777]]], [[[-44.7741, -1.5549], [-44.7773, -1.5544], [-44.7739, -1.5518], [-44.7741, -1.5549]]], [[[-44.7807, -1.5753], [-44.7808, -1.5724], [-44.7796, -1.5733], [-44.7807, -1.5753]]], [[[-44.7449, -1.5089], [-44.7946, -1.5211], [-44.7712, -1.4852], [-44.7748, -1.4779], [-44.7906, -1.469], [-44.7649, -1.4572], [-44.7449, -1.5089]]], [[[-44.7714, -1.5634], [-44.7672, -1.5684], [-44.7752, -1.5736], [-44.7714, -1.5634]]], [[[-44.7595, -1.5781], [-44.7529, -1.5364], [-44.735, -1.538], [-44.7323, -1.5524], [-44.7595, -1.5781]]], [[[-44.7476, -1.6964], [-44.7359, -1.6792], [-44.731, -1.6888], [-44.7476, -1.6964]]], [[[-44.7445, -1.678], [-44.7468, -1.6764], [-44.7444, -1.6768], [-44.7445, -1.678]]], [[[-44.7413, -1.6678], [-44.7274, -1.6577], [-44.7258, -1.671], [-44.7413, -1.6678]]], [[[-44.5552, -1.8726], [-44.5484, -1.872], [-44.5559, -1.876], [-44.5552, -1.8726]]], [[[-44.5597, -1.8817], [-44.5631, -1.8907], [-44.5749, -1.8855], [-44.5597, -1.8817]]], [[[-44.5566, -1.8786], [-44.5503, -1.8783], [-44.5585, -1.8798], [-44.5566, -1.8786]]], [[[-44.4664, -2.0653], [-44.464, -2.0769], [-44.4866, -2.0796], [-44.4664, -2.0653]]], [[[-44.0855, -2.4109], [-44.0856, -2.4169], [-44.0912, -2.4126], [-44.0855, -2.4109]]]]}}